IRIDIUM 166             
1 43570U 18061B   24267.40155454  .00000377  00000+0  12772-3 0  9992
2 43570  86.3976 320.7800 0002189 100.4331 259.7111 14.34220721322843
IRIDIUM 158             
1 43571U 18061C   24267.57914115  .00000509  00000+0  17469-3 0  9993
2 43571  86.3976 320.7154 0002174  98.8797 261.2645 14.34216744322835
IRIDIUM 165             
1 43572U 18061D   24267.39522384  .00000616  00000+0  21304-3 0  9999
2 43572  86.3978 320.8265 0002290  95.0202 265.1256 14.34213858322835
IRIDIUM 155             
1 43573U 18061E   24267.49669448  .00000585  00000+0  20177-3 0  9996
2 43573  86.3974 320.6845 0002145  98.6589 261.4850 14.34221336322828
IRIDIUM 163             
1 43575U 18061G   24267.45863596  .00000287  00000+0  95441-4 0  9990
2 43575  86.3974 320.7379 0002083  94.4117 265.7317 14.34220576322836
IRIDIUM 156             
1 43576U 18061H   24267.50303134  .00000223  00000+0  72437-4 0  9994
2 43576  86.3974 320.7261 0002278 102.6048 257.5403 14.34215571322832
IRIDIUM 164             
1 43577U 18061J   24267.41424216  .00000479  00000+0  16386-3 0  9993
2 43577  86.3977 320.7934 0002446  92.7512 267.3964 14.34219803322861
